IRIDIUM 126             
1 42809U 17039G   24279.46466225  .00001552  00000+0  54706-3 0  9999
2 42809  86.3931 252.5720 0002144  88.4724 271.6718 14.34218717381127
IRIDIUM 124             
1 42810U 17039H   24279.30401629  .00002880  00000+0  84952-3 0  9992
2 42810  86.4569 189.4477 0002629  90.5175 269.6327 14.43297133385706
IRIDIUM 128             
1 42811U 17039J   24279.52516955  .00000015  00000+0 -18677-5 0  9998
2 42811  86.3904 284.0963 0002240  97.4776 262.6674 14.34217581381166
IRIDIUM 121             
1 42812U 17039K   24279.48368855  .00000545  00000+0  18752-3 0  9997
2 42812  86.3933 252.5876 0002263  88.4220 271.7235 14.34219061381003
IRIDIUM 133             
1 42955U 17061A   24279.55688235 -.00000042  00000+0 -21910-4 0  9990
2 42955  86.3908 284.1853 0002101  89.8636 270.2800 14.34217328365969
IRIDIUM 100             
1 42956U 17061B   24279.55053857  .00000030  00000+0  38207-5 0  9990
2 42956  86.3905 284.1210 0002253  94.4602 265.6851 14.34217641365969
IRIDIUM 122             
1 42957U 17061C   24279.51882555  .00000067  00000+0  16893-4 0  9998
2 42957  86.3906 284.1330 0002085  95.9502 264.1931 14.34218257365969
IRIDIUM 129             
1 42958U 17061D   24279.54419589  .00000320  00000+0  10706-3 0  9993
2 42958  86.3905 284.1829 0001992  87.9704 272.1720 14.34217289365984
